STARLINK-2169           
1 47752U 21017AG  26068.63500182  .00004883  00000+0  18146-3 0  9998
2 47752  53.1582 204.0919 0001467  45.6401 314.4719 15.29354188277881
TEVEL2-1                
1 63217U 25052H   26068.64782323  .00020683  00000+0  70600-3 0  9994
2 63217  97.3991 324.7682 0004767 104.8919 255.2849 15.30341923 54855
